[{"OBJECT_NAME":"STARLINK-1641","OBJECT_ID":"2020-057BK","EPOCH":"2026-03-09T21:49:31.896480","MEAN_MOTION":15.50347057,"ECCENTRICITY":4.118e-5,"INCLINATION":53.0502,"RA_OF_ASC_NODE":283.9292,"ARG_OF_PERICENTER":183.3564,"MEAN_ANOMALY":176.7442,"EPHEMERIS_TYPE":0,"CLASSIFICATION_TYPE":"U","NORAD_CAT_ID":46174,"ELEMENT_SET_NO":999,"REV_AT_EPOCH":30654,"BSTAR":0.00068917164,"MEAN_MOTION_DOT":0.00039511,"MEAN_MOTION_DDOT":0},{"OBJECT_NAME":"JILIN-1 GAOFEN 3E","OBJECT_ID":"2020-065D","EPOCH":"2026-03-09T22:59:08.454336","MEAN_MOTION":15.53809917,"ECCENTRICITY":0.0014948,"INCLINATION":97.2429,"RA_OF_ASC_NODE":119.941,"ARG_OF_PERICENTER":163.8622,"MEAN_ANOMALY":196.3111,"EPHEMERIS_TYPE":0,"CLASSIFICATION_TYPE":"U","NORAD_CAT_ID":46457,"ELEMENT_SET_NO":999,"REV_AT_EPOCH":30430,"BSTAR":0.00073202996,"MEAN_MOTION_DOT":0.00047327,"MEAN_MOTION_DDOT":0}]
